CCSDS_OMM_VERS = 2.0
CREATION_DATE  = 
ORIGINATOR     = 

OBJECT_NAME    = SL-4 R/B
OBJECT_ID      = 2014-021B
CENTER_NAME    = EARTH
REF_FRAME      = TEME
TIME_SYSTEM    = UTC
MEAN_ELEMENT_THEORY = SGP/SGP4

EPOCH          = 2026-03-05T05:07:40.513440
MEAN_MOTION    = 15.39008154
ECCENTRICITY   = .00978834
INCLINATION    = 51.6094
RA_OF_ASC_NODE = 359.1115
ARG_OF_PERICENTER = 86.6279
MEAN_ANOMALY   = 274.5896

EPHEMERIS_TYPE = 0
CLASSIFICATION_TYPE = U
NORAD_CAT_ID   = 39679
ELEMENT_SET_NO = 999
REV_AT_EPOCH   = 65558
BSTAR          = .43144492E-3
MEAN_MOTION_DOT = .19612E-3
MEAN_MOTION_DDOT = 0

CCSDS_OMM_VERS = 2.0
CREATION_DATE  = 
ORIGINATOR     = 

OBJECT_NAME    = ALOS-2
OBJECT_ID      = 2014-029A
CENTER_NAME    = EARTH
REF_FRAME      = TEME
TIME_SYSTEM    = UTC
MEAN_ELEMENT_THEORY = SGP/SGP4

EPOCH          = 2026-03-05T06:07:22.221120
MEAN_MOTION    = 14.79481811
ECCENTRICITY   = .00014566
INCLINATION    = 97.9202
RA_OF_ASC_NODE = 162.9165
ARG_OF_PERICENTER = 101.6217
MEAN_ANOMALY   = 258.5158

EPHEMERIS_TYPE = 0
CLASSIFICATION_TYPE = U
NORAD_CAT_ID   = 39766
ELEMENT_SET_NO = 999
REV_AT_EPOCH   = 63621
BSTAR          = .13903589E-3
MEAN_MOTION_DOT = .987E-5
MEAN_MOTION_DDOT = 0

CCSDS_OMM_VERS = 2.0
CREATION_DATE  = 
ORIGINATOR     = 

OBJECT_NAME    = YAOGAN-29
OBJECT_ID      = 2015-069A
CENTER_NAME    = EARTH
REF_FRAME      = TEME
TIME_SYSTEM    = UTC
MEAN_ELEMENT_THEORY = SGP/SGP4

EPOCH          = 2026-03-05T08:11:29.195232
MEAN_MOTION    = 14.82988914
ECCENTRICITY   = .00021609
INCLINATION    = 98.0144
RA_OF_ASC_NODE = 92.7588
ARG_OF_PERICENTER = 42.7861
MEAN_ANOMALY   = 317.3520

EPHEMERIS_TYPE = 0
CLASSIFICATION_TYPE = U
NORAD_CAT_ID   = 41038
ELEMENT_SET_NO = 999
REV_AT_EPOCH   = 55523
BSTAR          = .5486939E-4
MEAN_MOTION_DOT = .392E-5
MEAN_MOTION_DDOT = 0

CCSDS_OMM_VERS = 2.0
CREATION_DATE  = 
ORIGINATOR     = 

OBJECT_NAME    = ASTRO-H (HITOMI)
OBJECT_ID      = 2016-012A
CENTER_NAME    = EARTH
REF_FRAME      = TEME
TIME_SYSTEM    = UTC
MEAN_ELEMENT_THEORY = SGP/SGP4

EPOCH          = 2026-03-05T06:30:37.422144
MEAN_MOTION    = 15.09967820
ECCENTRICITY   = .0009998
INCLINATION    = 31.0008
RA_OF_ASC_NODE = 25.0587
ARG_OF_PERICENTER = 287.1051
MEAN_ANOMALY   = 72.8492

EPHEMERIS_TYPE = 0
CLASSIFICATION_TYPE = U
NORAD_CAT_ID   = 41337
ELEMENT_SET_NO = 999
REV_AT_EPOCH   = 55156
BSTAR          = .28587552E-3
MEAN_MOTION_DOT = .4856E-4
MEAN_MOTION_DDOT = 0

CCSDS_OMM_VERS = 2.0
CREATION_DATE  = 
ORIGINATOR     = 

OBJECT_NAME    = HXMT (HUIYAN)
OBJECT_ID      = 2017-034A
CENTER_NAME    = EARTH
REF_FRAME      = TEME
TIME_SYSTEM    = UTC
MEAN_ELEMENT_THEORY = SGP/SGP4

EPOCH          = 2026-03-05T07:14:18.379104
MEAN_MOTION    = 15.17391548
ECCENTRICITY   = .00324755
INCLINATION    = 43.0151
RA_OF_ASC_NODE = 41.0670
ARG_OF_PERICENTER = 209.1306
MEAN_ANOMALY   = 150.7730

EPHEMERIS_TYPE = 0
CLASSIFICATION_TYPE = U
NORAD_CAT_ID   = 42758
ELEMENT_SET_NO = 999
REV_AT_EPOCH   = 48187
BSTAR          = .34897682E-3
MEAN_MOTION_DOT = .6961E-4
MEAN_MOTION_DDOT = 0

CCSDS_OMM_VERS = 2.0
CREATION_DATE  = 
ORIGINATOR     = 

OBJECT_NAME    = SAOCOM 1A
OBJECT_ID      = 2018-076A
CENTER_NAME    = EARTH
REF_FRAME      = TEME
TIME_SYSTEM    = UTC
MEAN_ELEMENT_THEORY = SGP/SGP4

EPOCH          = 2026-03-05T07:18:55.407744
MEAN_MOTION    = 14.82163947
ECCENTRICITY   = .00013243
INCLINATION    = 97.8883
RA_OF_ASC_NODE = 252.5391
ARG_OF_PERICENTER = 80.9859
MEAN_ANOMALY   = 279.1504

EPHEMERIS_TYPE = 0
CLASSIFICATION_TYPE = U
NORAD_CAT_ID   = 43641
ELEMENT_SET_NO = 999
REV_AT_EPOCH   = 40071
BSTAR          = .72375416E-4
MEAN_MOTION_DOT = .524E-5
MEAN_MOTION_DDOT = 0

CCSDS_OMM_VERS = 2.0
CREATION_DATE  = 
ORIGINATOR     = 

OBJECT_NAME    = H-2A R/B
OBJECT_ID      = 2018-084L
CENTER_NAME    = EARTH
REF_FRAME      = TEME
TIME_SYSTEM    = UTC
MEAN_ELEMENT_THEORY = SGP/SGP4

EPOCH          = 2026-03-05T04:31:00.464448
MEAN_MOTION    = 15.41119210
ECCENTRICITY   = .0025747
INCLINATION    = 98.8730
RA_OF_ASC_NODE = 280.6151
ARG_OF_PERICENTER = 40.5968
MEAN_ANOMALY   = 319.7187

EPHEMERIS_TYPE = 0
CLASSIFICATION_TYPE = U
NORAD_CAT_ID   = 43682
ELEMENT_SET_NO = 999
REV_AT_EPOCH   = 40508
BSTAR          = .56439585E-3
MEAN_MOTION_DOT = .23573E-3
MEAN_MOTION_DDOT = 0

CCSDS_OMM_VERS = 2.0
CREATION_DATE  = 
ORIGINATOR     = 

OBJECT_NAME    = SAOCOM 1B
OBJECT_ID      = 2020-059A
CENTER_NAME    = EARTH
REF_FRAME      = TEME
TIME_SYSTEM    = UTC
MEAN_ELEMENT_THEORY = SGP/SGP4

EPOCH          = 2026-03-05T06:26:39.980256
MEAN_MOTION    = 14.82166583
ECCENTRICITY   = .00014453
INCLINATION    = 97.8881
RA_OF_ASC_NODE = 251.6014
ARG_OF_PERICENTER = 82.4337
MEAN_ANOMALY   = 277.7040

EPHEMERIS_TYPE = 0
CLASSIFICATION_TYPE = U
NORAD_CAT_ID   = 46265
ELEMENT_SET_NO = 999
REV_AT_EPOCH   = 29809
BSTAR          = .78700047E-4
MEAN_MOTION_DOT = .574E-5
MEAN_MOTION_DDOT = 0

CCSDS_OMM_VERS = 2.0
CREATION_DATE  = 
ORIGINATOR     = 

OBJECT_NAME    = CSS (TIANHE)
OBJECT_ID      = 2021-035A
CENTER_NAME    = EARTH
REF_FRAME      = TEME
TIME_SYSTEM    = UTC
MEAN_ELEMENT_THEORY = SGP/SGP4

EPOCH          = 2026-03-04T21:58:42.573792
MEAN_MOTION    = 15.60409426
ECCENTRICITY   = .00068036
INCLINATION    = 41.4655
RA_OF_ASC_NODE = 237.2033
ARG_OF_PERICENTER = 243.7897
MEAN_ANOMALY   = 116.2243

EPHEMERIS_TYPE = 0
CLASSIFICATION_TYPE = U
NORAD_CAT_ID   = 48274
ELEMENT_SET_NO = 999
REV_AT_EPOCH   = 27686
BSTAR          = .26479219E-3
MEAN_MOTION_DOT = .22117E-3
MEAN_MOTION_DDOT = 0

CCSDS_OMM_VERS = 2.0
CREATION_DATE  = 
ORIGINATOR     = 

OBJECT_NAME    = COSMOS 2550
OBJECT_ID      = 2021-056A
CENTER_NAME    = EARTH
REF_FRAME      = TEME
TIME_SYSTEM    = UTC
MEAN_ELEMENT_THEORY = SGP/SGP4

EPOCH          = 2026-03-05T06:41:31.646400
MEAN_MOTION    = 15.33827452
ECCENTRICITY   = .00083729
INCLINATION    = 67.1449
RA_OF_ASC_NODE = 54.2738
ARG_OF_PERICENTER = 269.5116
MEAN_ANOMALY   = 90.5079

EPHEMERIS_TYPE = 0
CLASSIFICATION_TYPE = U
NORAD_CAT_ID   = 48865
ELEMENT_SET_NO = 999
REV_AT_EPOCH   = 26278
BSTAR          = -.185087E-6
MEAN_MOTION_DOT = -.198E-5
MEAN_MOTION_DDOT = 0

CCSDS_OMM_VERS = 2.0
CREATION_DATE  = 
ORIGINATOR     = 

OBJECT_NAME    = CZ-2C R/B
OBJECT_ID      = 2022-058K
CENTER_NAME    = EARTH
REF_FRAME      = TEME
TIME_SYSTEM    = UTC
MEAN_ELEMENT_THEORY = SGP/SGP4

EPOCH          = 2026-03-05T03:21:32.438592
MEAN_MOTION    = 15.53849210
ECCENTRICITY   = .00420759
INCLINATION    = 50.1909
RA_OF_ASC_NODE = 341.6872
ARG_OF_PERICENTER = 181.2962
MEAN_ANOMALY   = 178.7906

EPHEMERIS_TYPE = 0
CLASSIFICATION_TYPE = U
NORAD_CAT_ID   = 52794
ELEMENT_SET_NO = 999
REV_AT_EPOCH   = 20942
BSTAR          = .55741068E-3
MEAN_MOTION_DOT = .37686E-3
MEAN_MOTION_DDOT = 0

CCSDS_OMM_VERS = 2.0
CREATION_DATE  = 
ORIGINATOR     = 

OBJECT_NAME    = CZ-2C R/B
OBJECT_ID      = 2022-132E
CENTER_NAME    = EARTH
REF_FRAME      = TEME
TIME_SYSTEM    = UTC
MEAN_ELEMENT_THEORY = SGP/SGP4

EPOCH          = 2026-03-05T03:25:05.298816
MEAN_MOTION    = 15.61400417
ECCENTRICITY   = .00207892
INCLINATION    = 97.2959
RA_OF_ASC_NODE = 67.3229
ARG_OF_PERICENTER = 106.0747
MEAN_ANOMALY   = 254.2802

EPHEMERIS_TYPE = 0
CLASSIFICATION_TYPE = U
NORAD_CAT_ID   = 54039
ELEMENT_SET_NO = 999
REV_AT_EPOCH   = 18966
BSTAR          = .56112008E-3
MEAN_MOTION_DOT = .48407E-3
MEAN_MOTION_DDOT = 0

